[{"OBJECT_NAME":"AEROCUBE 7","OBJECT_ID":"2015-058C","EPOCH":"2026-03-09T17:13:01.759008","MEAN_MOTION":14.94898912,"ECCENTRICITY":0.01206065,"INCLINATION":64.7631,"RA_OF_ASC_NODE":196.1788,"ARG_OF_PERICENTER":101.5653,"MEAN_ANOMALY":259.9029,"EPHEMERIS_TYPE":0,"CLASSIFICATION_TYPE":"U","NORAD_CAT_ID":40966,"ELEMENT_SET_NO":999,"REV_AT_EPOCH":35108,"BSTAR":0.00047976725,"MEAN_MOTION_DOT":5.894e-5,"MEAN_MOTION_DDOT":0},{"OBJECT_NAME":"STARLINK-34407","OBJECT_ID":"2025-126D","EPOCH":"2026-03-09T22:04:21.843264","MEAN_MOTION":14.98597116,"ECCENTRICITY":0.00057451,"INCLINATION":70.0054,"RA_OF_ASC_NODE":33.9827,"ARG_OF_PERICENTER":207.854,"MEAN_ANOMALY":152.2312,"EPHEMERIS_TYPE":0,"CLASSIFICATION_TYPE":"U","NORAD_CAT_ID":64347,"ELEMENT_SET_NO":999,"REV_AT_EPOCH":4071,"BSTAR":0.025029772,"MEAN_MOTION_DOT":0.00314549,"MEAN_MOTION_DDOT":0}]
